ERS-1                   
1 21574U 91050A   26079.33249232  .00000243  00000+0  92306-4 0  9998
2 21574  98.7874  97.8344 0032219 168.8149 191.3761 14.39456904817260
ARIANE 40 R/B           
1 21610U 91050F   26079.42746870  .00000224  00000+0  79555-4 0  9999
2 21610  98.1990 131.2599 0003998  57.6464 302.5113 14.42900784820542
INTERCOSMOS 25          
1 21819U 91086A   26079.55429950  .00001572  00000+0  30065-3 0  9999
2 21819  82.6033 303.4412 1486805  93.5248 283.6435 12.12036979498007
SL-8 R/B                
1 21876U 92008B   26079.47754806  .00000004  00000+0 -12165-4 0  9991
2 21876  82.9223 259.7509 0035888 104.1540 285.3941 13.75969630710904
SL-8 R/B                
1 21938U 92020B   26079.44733465  .00000049  00000+0  35771-4 0  9995
2 21938  82.9320 145.7750 0027541 267.3221 102.8692 13.75550192702612
USA 81                  
1 21949U 92023A   26079.41688137  .00000153  00000+0  49336-4 0  9990
2 21949  85.0064 125.2516 0002145  70.2283 289.9141 14.32371242 96329
COSMOS 2219             
1 22219U 92076A   26079.48538913 -.00000137  00000+0 -47026-4 0  9990
2 22219  71.0639 355.5023 0018346 191.8062 168.2633 14.14093140719908
SL-16 R/B               
1 22220U 92076B   26079.48866909  .00000283  00000+0  16502-3 0  9995
2 22220  71.0006 165.6278 0010634  76.4105 295.4419 14.16861257723362
COSMOS 2221             
1 22236U 92080A   26079.47141585  .00001853  00000+0  16166-3 0  9992
2 22236  82.5000 268.7503 0014964 151.5757 208.6284 14.96242273782409
SL-16 R/B               
1 22285U 92093B   26079.48136972  .00000275  00000+0  16513-3 0  9998
2 22285  71.0238 341.6133 0006302 282.8588  77.1830 14.15448911714685
COSMOS 2228             
1 22286U 92094A   26079.48059000  .00002303  00000+0  19624-3 0  9996
2 22286  82.5171 226.9775 0016605 265.3393  94.5933 14.97243472777673
SL-16 R/B               
1 22566U 93016B   26079.38148413 -.00000264  00000+0 -11106-3 0  9991
2 22566  71.0081 192.7264 0012327 300.1830  59.8071 14.15307268703682
